SB KEPS @ AMSAT  $ORB17285.N
2Line Orbital Elements 17285.AMSAT

HR AMSAT ORBITAL ELEMENTS FOR AMATEUR SATELLITES IN NASA FORMAT
FROM WA5QGD FORT WORTH,TX October 12, 2017
BID: ORB17285.N

DECODE 2-LINE ELSETS WITH THE FOLLOWING KEY:
1 AAAAAU 00  0  0 BBBBB.BBBBBBBB  .CCCCCCCC  00000-0  00000-0 0  DDDZ
2 AAAAA EEE.EEEE FFF.FFFF GGGGGGG HHH.HHHH III.IIII JJ.JJJJJJJJKKKKKZ
KEY: A-CATALOGNUM B-EPOCHTIME C-DECAY D-ELSETNUM E-INCLINATION F-RAAN
G-ECCENTRICITY H-ARGPERIGEE I-MNANOM J-MNMOTION K-ORBITNUM Z-CHECKSUM

TO ALL RADIO AMATEURS BT

AO-07
1 07530U 74089B   17285.55931103 -.00000020  00000-0  15144-3 0  9994
2 07530 101.6468 251.9949 0012421 093.8968 022.5885 12.53629196963333
UO-11
1 14781U 84021B   17285.57586047  .00000165  00000-0  26606-4 0  9997
2 14781 097.6844 326.8837 0008841 165.7176 194.4290 14.82941588786743
LO-19
1 20442U 90005G   17285.80786679  .00000019  00000-0  22978-4 0  9992
2 20442  98.5829 221.1625 0012113 155.3145 204.8621 14.32873230448468
HUBBLE
1 20580U 90037B   17285.49814358  .00000840  00000-0  40843-4 0  9994
2 20580 028.4701 312.2992 0002702 000.9766 118.1047 15.08883864307931
MET-2/21
1 22782U 93055A   17285.52756167  .00000030  00000-0  13377-4 0  9993
2 22782 082.5457 290.4623 0023708 101.3370 009.1952 13.83802499217659
AO-27
1 22825U 93061C   17285.81152813  .00000028  00000-0  28483-4 0  9999
2 22825  98.8276 252.9242 0008343 355.9391   4.1721 14.30009303254212
IO-26
1 22826U 93061D   17285.46576937  .00000040  00000-0  32986-4 0  9995
2 22826 098.8218 252.6417 0008710 346.5957 013.4992 14.30339079254097
FO-29
1 24278U 96046B   17285.58909871 -.00000003  00000-0  32357-4 0  9996
2 24278 098.5431 153.1208 0351012 033.2771 328.9915 13.53079317044509
NOAA-15
1 25338U 98030A   17285.61811273  .00000032  00000-0  32547-4 0  9993
2 25338 098.7811 296.7578 0009829 221.6982 138.3449 14.25820372009486
GO-32
1 25397U 98043D   17285.77832185  .00000011  00000-0  23675-4 0  9993
2 25397  98.6196 225.6852 0002029  50.4334 309.7024 14.23630760   523
ISS
1 25544U 98067A   17285.84441990  .00003873  00000-0  65660-4 0  9990
2 25544  51.6419 171.7919 0004573  17.2907  30.3669 15.54156481 80058
NO-44
1 26931U 01043C   17285.08042000 -.00000015  00000-0  26028-4 0  9995
2 26931 067.0503 149.5930 0005819 257.8769 102.1680 14.30477814836994
SO-50
1 27607U 02058C   17284.99849941  .00000086  00000-0  32956-4 0  9995
2 27607 064.5542 128.5968 0035359 040.0084 320.3613 14.75374910796214
CO-55
1 27844U 03031E   17285.57743749  .00000083  00000-0  57349-4 0  9994
2 27844 098.6906 292.8797 0010015 014.5250 345.6214 14.22066096740960
CO-57
1 27848U 03031J   17285.60913851  .00000065  00000-0  49559-4 0  9999
2 27848 098.6997 293.2185 0010082 023.8591 336.3052 14.21677047740853
RS-22
1 27939U 03042A   17285.80750677  .00000181  00000-0  40968-4 0  9993
2 27939  97.9566  66.8778 0012367 207.8351 261.9741 14.66612756750557
NOAA-18
1 28654U 05018A   17285.58351263  .00000025  00000-0  38720-4 0  9996
2 28654 099.1755 310.6272 0015321 102.2162 258.0726 14.12352552638737
CO-58
1 28895U 05043F   17284.68282809  .00000258  00000-0  58435-4 0  9993
2 28895 097.8787 081.7039 0017877 132.3682 227.9038 14.63451917637292
Falconsat-3
1 30776U 07006E   17285.74573879  .00006202  00000-0  19063-3 0  9991
2 30776  35.4371  40.4468 0003644 306.1132  53.9256 15.33086100586306
CO-65
1 32785U 08021C   17285.79437281  .00000415  00000-0  50798-4 0  9993
2 32785  97.5609 304.6632 0014243 134.2290 226.0099 14.87974547512385
AAUSAT2
1 32788U 08021F   17285.58021867  .00001145  00000-0  11225-3 0  9994
2 32788 097.5491 317.0867 0013557 097.6350 262.6411 14.94044332513104
DO-64
1 32789U 08021G   17285.36982479  .00003073  00000-0  21853-3 0  9996
2 32789 097.5472 341.0807 0013854 066.6849 293.5834 15.05318888514391
CO-66
1 32791U 08021J   17285.61047992  .00000691  00000-0  76403-4 0  9994
2 32791  97.5559 309.2076 0014842 119.7554 240.5143 14.90343846512630
RS-30
1 32953U 08025A   17285.79098800 -.00000001  00000-0 -78190-4 0  9993
2 32953  82.5046 166.5386 0019927  30.3967 329.8264 12.43079477426033
PRISM
1 33493U 09002B   17285.90215413  .00000891  00000-0  85190-4 0  9996
2 33493  98.1508 173.2047 0016604  56.0592 304.2212 14.95865223473376
NOAA-19
1 33591U 09005A   17285.52656276  .00000096  00000-0  77437-4 0  9994
2 33591 099.1078 254.1008 0013215 305.3786 054.6149 14.12219142446955
TISAT-1
1 36799U 10035E   17285.83106039  .00000951  00000-0  10335-3 0  9996
2 36799  98.0761  51.0470 0011234 303.9775  56.0374 14.90543130393302
JUGNU
1 37839U 11058B   17285.83466959  .00000335  00000-0  36768-4 0  9993
2 37839  19.9608  97.1203 0019005  40.2690  54.6599 14.12596583310357
SRMSAT
1 37841U 11058D   17285.01495571  .00000331  00000-0  36897-4 0  9997
2 37841 019.9710 146.1803 0011778 284.2418 223.7880 14.10586893309702
AO-71
1 37854U 11061E   17285.51585053  .00003016  00000-0  16625-3 0  9994
2 37854 101.6936 218.7899 0166400 087.5219 274.5030 15.04502761324122
HRBE
1 37855U 11061F   17285.53992247  .00003025  00000-0  16346-3 0  9994
2 37855 101.7067 216.5553 0179706 094.6911 267.4848 15.03471854323958
ALMASAT-1
1 38078U 12006B   17285.81226745  .00032218  38051-5  34464-3 0  9995
2 38078  69.4343 174.7063 0286124 117.5969 245.4573 15.27568230302718
HORYU-2
1 38340U 12025D   17285.61943011  .00000360  00000-0  61064-4 0  9996
2 38340  98.3783 293.6946 0010369 279.8458  80.1579 14.75417630290604
RS-40
1 38735U 12041C   17285.84583906 -.00000003  00000-0 -95372-4 0  9995
2 38735  82.4738 250.8114 0017547 128.9866 231.2780 12.42574804236310
BEESAT-3
1 39134U 13015E   17285.55140434  .00003106  00000-0  15789-3 0  9992
2 39134 064.8662 207.4999 0037170 245.8996 113.8241 15.18300264246917
BEESAT-2
1 39136U 13015G   17285.59160165  .00002694  00000-0  15011-3 0  9990
2 39136  64.8708 219.7376 0033142 266.7457  92.9876 15.15474176247063
ZACUBE-1
1 39417U 13066B   17285.60565198  .00000379  00000-0  54481-4 0  9998
2 39417 097.6179 322.0831 0057910 245.1778 114.3406 14.80789670210158
TRITON-1
1 39427U 13066M   17285.60456738  .00000402  00000-0  72625-4 0  9995
2 39427 097.6372 293.0899 0113585 333.3127 026.2261 14.67534331208079
GOMX-1
1 39430U 13066Q   17285.52297098  .00000478  00000-0  95425-4 0  9998
2 39430 097.6731 275.6605 0152682 032.9617 328.0991 14.58940819206859
LO-74
1 39440U 13066AA  17285.83723484  .00000341  00000-0  55005-4 0  9995
2 39440  97.6206 310.5757 0079196 278.7863  80.4385 14.75530399209446
AO-73
1 39444U 13066AE  17285.66177402  .00000468  00000-0  64581-4 0  9992
2 39444  97.6194 323.3419 0057133 241.2097 118.3372 14.81539238209001
SPROUT
1 39770U 14029E   17285.84127299  .00000887  00000-0  10658-3 0  9993
2 39770  97.8761  24.0899 0007857 307.8697  52.1805 14.86452030183618
DUCHIFAT-1
1 40021U 14033M   17285.75720843  .00000820  00000-0  90851-4 0  9994
2 40021  97.9132 199.0627 0011576 275.7987  84.1911 14.90039635180103
NANOSATCBR1
1 40024U 14033Q   17285.74595999  .00000664  00000-0  75901-4 0  9993
2 40024  97.9084 197.7489 0010891 277.4227  82.5752 14.89343479180048
EO-79
1 40025U 14033R   17285.31841018  .00000617  00000-0  72350-4 0  9996
2 40025 097.9058 196.1849 0011143 282.5316 077.4654 14.88525669179404
DTUSAT-2
1 40030U 14033W   17285.21894308  .00000580  00000-0  68987-4 0  9991
2 40030 097.9019 195.0759 0010544 277.0622 082.9395 14.88143231179345
EO-80
1 40032U 14033Y   17285.73695638  .00000546  00000-0  65407-4 0  9991
2 40032  97.9026 195.5974 0010485 275.5014  84.5007 14.88079324179924
ANTELSAT
1 40034U 14033AA  17285.74407179  .00000388  00000-0  65571-4 0  9991
2 40034  97.8413 165.9265 0057608 275.1188  84.3447 14.73776434178234
VELOX-1
1 40057U 14034E   17285.82341238  .00000520  00000-0  80951-4 0  9996
2 40057  98.1942  27.8463 0011973  46.4378 313.7816 14.77229906177128
DAURIA DX 1
1 40071U 14037C   17285.82243750  .00000209  00000-0  34317-4 0  9994
2 40071  98.3492  41.6355 0009501  42.1345 318.0602 14.81068628176386
UKUBE-1
1 40074U 14037F   17285.78531110  .00000511  00000-0  69113-4 0  9990
2 40074  98.3595  46.0723 0005461  45.7875 314.3798 14.83608916176612
HODOYOSHI-1
1 40299U 14070B   17285.85568208  .00000983  00000-0  45330-4 0  9990
2 40299  97.3980   6.7870 0014514  45.1685  92.1695 15.22500469162841
CHUBUSAT-1
1 40300U 14070C   17285.86190208  .00001149  00000-0  54427-4 0  9997
2 40300  97.3883   3.5720 0022008  52.7196  82.8554 15.21125915162672
QSAT-EOS
1 40301U 14070D   17285.84647030  .00002458  00000-0  10405-3 0  9997
2 40301  97.3821   3.9471 0028570  46.4049  91.7738 15.23769070162748
FIREBIRD FU3
1 40377U 15003B   17285.52402296  .00003997  00000-0  16992-3 0  9991
2 40377 099.1162 132.9247 0134073 333.8768 025.5735 15.16031729148774
FIREBIRD FU4
1 40378U 15003C   17285.64679002  .00003877  00000-0  16478-3 0  9992
2 40378  99.1164 133.1171 0134281 333.3572  26.0797 15.16047207148801
GRIFEX
1 40379U 15003D   17285.56120766  .00002544  00000-0  11639-3 0  9996
2 40379 099.1197 130.2949 0140638 342.7171 016.9292 15.13447196148627
NO-84
1 40654U 15025D   17284.39458724  .00014412  00000-0  25473-3 0 01073
2 40654 054.9957 076.5352 0173211 197.4562 162.0371 15.35760275017556
NO-83
1 40655U 15025E   17284.35288378  .00026966  00000-0  36781-3 0 01213
2 40655 054.9810 044.0264 0134642 216.3109 142.8260 15.47346399017632
DEORBITSAIL
1 40719U 15032E   17285.66360715  .00000703  00000-0  10876-3 0  9994
2 40719  97.9656 177.8677 0017440 121.9265 238.3643 14.76186756121655
NUDT-PHONESAT
1 40900U 15049B   17285.77203490  .00004853  00000-0  22739-3 0  9993
2 40900  97.4447 292.0769 0014176 167.4565 192.7025 15.20086972114314
XW-2A
1 40903U 15049E   17285.80646347  .00004165  00000-0  10845-3 0  9993
2 40903  97.4138 312.9471 0014127 195.3172 164.7648 15.39373655115730
XW-2C
1 40906U 15049H   17285.83581921  .00001300  00000-0  73451-4 0  9996
2 40906  97.4577 289.0052 0015639 161.1223 199.0592 15.14776250114049
XW-2D
1 40907U 15049J   17285.81067979  .00001429  00000-0  80127-4 0  9997
2 40907  97.4547 288.7160 0015058 159.0286 201.1567 15.14896349114042
